{
    "links": {
        "self": "http://www.neowsapp.com/rest/v1/neo/3070547?api_key=iIulBulltgU6a56xZRHN4H3l9WmuAYTsLGpBGhQ2"
    },
    "id": "3070547",
    "neo_reference_id": "3070547",
    "name": "(2000 WQ148)",
    "designation": "2000 WQ148",
    "nasa_jpl_url": "http://ssd.jpl.nasa.gov/sbdb.cgi?sstr=3070547",
    "absolute_magnitude_h": 22.7,
    "estimated_diameter": {
        "kilometers": {
            "estimated_diameter_min": 0.0766575574,
            "estimated_diameter_max": 0.1714115092
        },
        "meters": {
            "estimated_diameter_min": 76.6575573531,
            "estimated_diameter_max": 171.4115092306
        },
        "miles": {
            "estimated_diameter_min": 0.0476327831,
            "estimated_diameter_max": 0.1065101409
        },
        "feet": {
            "estimated_diameter_min": 251.5011804664,
            "estimated_diameter_max": 562.3737359442
        }
    },
    "is_potentially_hazardous_asteroid": false,
    "close_approach_data": [
        {
            "close_approach_date": "2000-12-14",
            "close_approach_date_full": "2000-Dec-14 02:50",
            "epoch_date_close_approach": 976762200000,
            "relative_velocity": {
                "kilometers_per_second": "14.0589209313",
                "kilometers_per_hour": "50612.1153525583",
                "miles_per_hour": "31448.4002311494"
            },
            "miss_distance": {
                "astronomical": "0.033946978",
                "lunar": "13.205374442",
                "kilometers": "5078395.60173686",
                "miles": "3155568.701254268"
            },
            "orbiting_body": "Earth"
        },
        {
            "close_approach_date": "2001-05-03",
            "close_approach_date_full": "2001-May-03 08:22",
            "epoch_date_close_approach": 988878120000,
            "relative_velocity": {
                "kilometers_per_second": "15.9085639652",
                "kilometers_per_hour": "57270.8302745674",
                "miles_per_hour": "35585.866733661"
            },
            "miss_distance": {
                "astronomical": "0.0946648255",
                "lunar": "36.8246171195",
                "kilometers": "14161656.258721685",
                "miles": "8799645.154201853"
            },
            "orbiting_body": "Mars"
        }
    ],
    "orbital_data": {
        "orbit_id": "11",
        "orbit_determination_date": "2017-04-06 09:16:38",
        "first_observation_date": "2000-11-30",
        "last_observation_date": "2000-12-12",
        "data_arc_in_days": 12,
        "observations_used": 48,
        "orbit_uncertainty": "8",
        "minimum_orbit_intersection": ".0145168",
        "jupiter_tisserand_invariant": "3.571",
        "epoch_osculation": "2451882.5",
        "eccentricity": ".5917060782433784",
        "semi_major_axis": "2.029050072594028",
        "inclination": "1.877294391373807",
        "ascending_node_longitude": "224.1238877429485",
        "orbital_period": "1055.692834505712",
        "perihelion_distance": ".8284488115799736",
        "perihelion_argument": "276.125930936578",
        "aphelion_distance": "3.229651333608083",
        "perihelion_time": "2451931.390400310710",
        "mean_anomaly": "343.3279685751619",
        "mean_motion": ".341008282175711",
        "equinox": "J2000",
        "orbit_class": {
            "orbit_class_type": "APO",
            "orbit_class_description": "Near-Earth asteroid orbits which cross the Earth’s orbit similar to that of 1862 Apollo",
            "orbit_class_range": "a (semi-major axis) > 1.0 AU; q (perihelion) < 1.017 AU"
        }
    },
    "is_sentry_object": false
}